[{"OBJECT_NAME":"QIANFAN-103","OBJECT_ID":"2025-233N","EPOCH":"2026-03-02T18:06:20.998944","MEAN_MOTION":13.51006032,"ECCENTRICITY":0.0001879,"INCLINATION":88.9931,"RA_OF_ASC_NODE":53.9523,"ARG_OF_PERICENTER":91.3277,"MEAN_ANOMALY":268.8089,"EPHEMERIS_TYPE":0,"CLASSIFICATION_TYPE":"U","NORAD_CAT_ID":66045,"ELEMENT_SET_NO":999,"REV_AT_EPOCH":1881,"BSTAR":8.3172e-5,"MEAN_MOTION_DOT":6.6e-7,"MEAN_MOTION_DDOT":0},{"OBJECT_NAME":"QIANFAN-104","OBJECT_ID":"2025-233P","EPOCH":"2026-03-02T18:11:58.661376","MEAN_MOTION":13.51010081,"ECCENTRICITY":0.0002086,"INCLINATION":88.9936,"RA_OF_ASC_NODE":53.8493,"ARG_OF_PERICENTER":86.3217,"MEAN_ANOMALY":273.8173,"EPHEMERIS_TYPE":0,"CLASSIFICATION_TYPE":"U","NORAD_CAT_ID":66046,"ELEMENT_SET_NO":999,"REV_AT_EPOCH":1886,"BSTAR":6.0722e-5,"MEAN_MOTION_DOT":5.1e-7,"MEAN_MOTION_DDOT":0},{"OBJECT_NAME":"QIANFAN-105","OBJECT_ID":"2025-233Q","EPOCH":"2026-03-02T18:23:39.113952","MEAN_MOTION":13.50981353,"ECCENTRICITY":0.0002004,"INCLINATION":88.9949,"RA_OF_ASC_NODE":53.6773,"ARG_OF_PERICENTER":92.6338,"MEAN_ANOMALY":267.5043,"EPHEMERIS_TYPE":0,"CLASSIFICATION_TYPE":"U","NORAD_CAT_ID":66047,"ELEMENT_SET_NO":999,"REV_AT_EPOCH":1897,"BSTAR":4.5175e-5,"MEAN_MOTION_DOT":4.1e-7,"MEAN_MOTION_DDOT":0},{"OBJECT_NAME":"QIANFAN-106","OBJECT_ID":"2025-233R","EPOCH":"2026-03-02T14:44:49.648128","MEAN_MOTION":13.51005066,"ECCENTRICITY":0.0002375,"INCLINATION":88.9918,"RA_OF_ASC_NODE":53.9391,"ARG_OF_PERICENTER":87.5704,"MEAN_ANOMALY":272.5719,"EPHEMERIS_TYPE":0,"CLASSIFICATION_TYPE":"U","NORAD_CAT_ID":66048,"ELEMENT_SET_NO":999,"REV_AT_EPOCH":1880,"BSTAR":5.8571e-5,"MEAN_MOTION_DOT":5.0e-7,"MEAN_MOTION_DDOT":0},{"OBJECT_NAME":"QIANFAN-107","OBJECT_ID":"2025-233S","EPOCH":"2026-03-02T18:30:00.970848","MEAN_MOTION":13.51003028,"ECCENTRICITY":0.0001905,"INCLINATION":88.9933,"RA_OF_ASC_NODE":53.9387,"ARG_OF_PERICENTER":90.4962,"MEAN_ANOMALY":269.6408,"EPHEMERIS_TYPE":0,"CLASSIFICATION_TYPE":"U","NORAD_CAT_ID":66049,"ELEMENT_SET_NO":999,"REV_AT_EPOCH":1882,"BSTAR":3.3794e-5,"MEAN_MOTION_DOT":3.4e-7,"MEAN_MOTION_DDOT":0},{"OBJECT_NAME":"QIANFAN-108","OBJECT_ID":"2025-233T","EPOCH":"2026-03-02T18:35:55.871808","MEAN_MOTION":13.51004534,"ECCENTRICITY":0.0002328,"INCLINATION":88.9926,"RA_OF_ASC_NODE":53.9336,"ARG_OF_PERICENTER":86.9617,"MEAN_ANOMALY":273.18,"EPHEMERIS_TYPE":0,"CLASSIFICATION_TYPE":"U","NORAD_CAT_ID":66050,"ELEMENT_SET_NO":999,"REV_AT_EPOCH":1882,"BSTAR":3.6711e-5,"MEAN_MOTION_DOT":3.6e-7,"MEAN_MOTION_DDOT":0}]
