QIANFAN-103             
1 66045U 25233N   26061.75440971  .00000066  00000+0  83172-4 0  9994
2 66045  88.9931  53.9523 0001879  91.3277 268.8089 13.51006032 18812
QIANFAN-104             
1 66046U 25233P   26061.75831784  .00000051  00000+0  60722-4 0  9991
2 66046  88.9936  53.8493 0002086  86.3217 273.8173 13.51010081 18866
QIANFAN-105             
1 66047U 25233Q   26061.76642493  .00000041  00000+0  45175-4 0  9994
2 66047  88.9949  53.6773 0002004  92.6338 267.5043 13.50981353 18970
QIANFAN-106             
1 66048U 25233R   26061.61446352  .00000050  00000+0  58571-4 0  9999
2 66048  88.9918  53.9391 0002375  87.5704 272.5719 13.51005066 18804
QIANFAN-107             
1 66049U 25233S   26061.77084457  .00000034  00000+0  33794-4 0  9993
2 66049  88.9933  53.9387 0001905  90.4962 269.6408 13.51003028 18824
QIANFAN-108             
1 66050U 25233T   26061.77495222  .00000036  00000+0  36711-4 0  9995
2 66050  88.9926  53.9336 0002328  86.9617 273.1800 13.51004534 18828
